0 ARIANE 5 DEB (SYLDA)
1 26613U 00072F   13282.74851329  .00000458  00000-0  38248-2 0  4070
2 26613 006.4043 117.8966 7334782 014.7671 162.8222 02.02938296 95654
0 ARIANE 5 DEB (SYLDA)
1 26613U 00072F   13286.14268265  .00000487  00000-0  48305-2 0  4098
2 26613 006.4126 116.8046 7333995 016.9383 122.5322 02.02941516 95724
0 ARIANE 5 DEB (SYLDA)
1 26613U 00072F   13287.65395892  .00000439  00000-0  44592-2 0  4105
2 26613 006.4157 116.3194 7333628 017.9027 146.6488 02.02943650 95750
0 ARIANE 5 DEB (SYLDA)
1 26613U 00072F   13290.40713649  .00000304  00000-0  67671-2 0  4122
2 26613 006.4031 115.4982 7334954 019.6113 358.0975 02.02945467 95819
0 ARIANE 5 DEB (SYLDA)
1 26613U 00072F   13290.56083037  .00000226  00000-0  33870-2 0  4116
2 26613 006.4216 115.3868 7333055 019.7548 110.3987 02.02947426 95819
0 ARIANE 5 DEB (SYLDA)
1 26613U 00072F   13291.77228645  .00000085  00000-0  25261-2 0  4125
2 26613 006.4241 114.9986 7332851 020.5259 275.4925 02.02948785 95831
0 ARIANE 5 DEB (SYLDA)
1 26613U 00072F   13295.33391238 -.00000212  00000-0  21596-2 0  4131
2 26613 006.4393 113.8710 7331808 022.8254 357.5895 02.02943587 95904
0 ARIANE 5 DEB (SYLDA)
1 26613U 00072F   13295.77046081 -.00000319  00000-0  18375-3 0  4143
2 26613 006.4324 113.7177 7332106 023.0703 316.6074 02.02951991 95912
